{"type":"FeatureCollection","name":"tambon_nbl","features":[{"type":"Feature","properties":{"tam":"หนองบัว","amp":"เมืองหนองบัวลำภู","code":"390101","km2":75.97},"geometry":{"type":"MultiPolygon","coordinates":[[[[102.36488,17.12573],[102.3876,17.1623],[102.42371,17.19066],[102.43772,17.21122],[102.47206,17.20217],[102.50364,17.19507],[102.5089,17.18169],[102.49148,17.15069],[102.43992,17.13845],[102.37682,17.13062],[102.36488,17.12573]]]]}},{"type":"Feature","properties":{"tam":"หนองภัยศูนย์","amp":"เมืองหนองบัวลำภู","code":"390102","km2":44.03},"geometry":{"type":"MultiPolygon","coordinates":[[[[102.43883,17.284],[102.43867,17.28267],[102.42157,17.23306],[102.41124,17.22929],[102.39552,17.2268],[102.37549,17.24006],[102.37158,17.25146],[102.36112,17.25771],[102.34452,17.28864],[102.43883,17.284]]]]}},{"type":"Feature","properties":{"tam":"โพธิ์ชัย","amp":"เมืองหนองบัวลำภู","code":"390103","km2":42.15},"geometry":{"type":"MultiPolygon","coordinates":[[[[102.41124,17.22929],[102.40577,17.21504],[102.40724,17.2071],[102.42304,17.19731],[102.42371,17.19066],[102.3876,17.1623],[102.38371,17.18214],[102.36107,17.19455],[102.36503,17.20709],[102.35415,17.21049],[102.34943,17.21856],[102.33897,17.22335],[102.34285,17.23837],[102.35707,17.24858],[102.36112,17.25771],[102.37158,17.25146],[102.37549,17.24006],[102.39552,17.2268],[102.41124,17.22929]]]]}},{"type":"Feature","properties":{"tam":"หนองสวรรค์","amp":"เมืองหนองบัวลำภู","code":"390104","km2":39.14},"geometry":{"type":"MultiPolygon","coordinates":[[[[102.30293,17.22673],[102.31608,17.2261],[102.32577,17.21792],[102.33897,17.22335],[102.34943,17.21856],[102.35415,17.21049],[102.36503,17.20709],[102.36107,17.19455],[102.32626,17.17166],[102.27581,17.20689],[102.26987,17.22241],[102.27894,17.23917],[102.30293,17.22673]]]]}},{"type":"Feature","properties":{"tam":"หัวนา","amp":"เมืองหนองบัวลำภู","code":"390105","km2":101.55},"geometry":{"type":"MultiPolygon","coordinates":[[[[102.43859,17.07517],[102.4383,17.06634],[102.43401,17.06562],[102.43134,17.05715],[102.43755,17.04312],[102.43065,17.03452],[102.43703,17.02146],[102.44873,17.01506],[102.41823,16.96314],[102.39385,16.98772],[102.36443,17.00185],[102.3454,17.02269],[102.32894,17.02988],[102.32733,17.04357],[102.32263,17.05393],[102.33025,17.07034],[102.41661,17.07723],[102.43859,17.07517]]]]}},{"type":"Feature","properties":{"tam":"บ้านขาม","amp":"เมืองหนองบัวลำภู","code":"390106","km2":69.4},"geometry":{"type":"MultiPolygon","coordinates":[[[[102.50694,17.13916],[102.52022,17.10032],[102.50894,17.08994],[102.46358,17.07019],[102.44621,17.05703],[102.43134,17.05715],[102.43401,17.06562],[102.4383,17.06634],[102.43859,17.07517],[102.43992,17.13845],[102.49148,17.15069],[102.5089,17.18169],[102.52055,17.15113],[102.52059,17.14537],[102.50694,17.13916]]]]}},{"type":"Feature","properties":{"tam":"นามะเฟือง","amp":"เมืองหนองบัวลำภู","code":"390107","km2":92.11},"geometry":{"type":"MultiPolygon","coordinates":[[[[102.58051,17.04052],[102.57474,17.03269],[102.54496,17.01392],[102.52298,17.01194],[102.50368,17.00201],[102.49545,17.00394],[102.48522,17.02235],[102.47118,17.02814],[102.45936,17.0245],[102.44873,17.01506],[102.43703,17.02146],[102.43065,17.03452],[102.43755,17.04312],[102.43134,17.05715],[102.44621,17.05703],[102.46358,17.07019],[102.50894,17.08994],[102.52022,17.10032],[102.54383,17.06722],[102.58051,17.04052]]]]}},{"type":"Feature","properties":{"tam":"บ้านพร้าว","amp":"เมืองหนองบัวลำภู","code":"390108","km2":64.52},"geometry":{"type":"MultiPolygon","coordinates":[[[[102.43859,17.07517],[102.41661,17.07723],[102.33025,17.07034],[102.33133,17.08461],[102.34732,17.1007],[102.3503,17.1157],[102.36488,17.12573],[102.37682,17.13062],[102.43992,17.13845],[102.43859,17.07517]]]]}},{"type":"Feature","properties":{"tam":"โนนขมิ้น","amp":"เมืองหนองบัวลำภู","code":"390109","km2":54.9},"geometry":{"type":"MultiPolygon","coordinates":[[[[102.31923,17.1178],[102.28214,17.12724],[102.27458,17.13476],[102.25568,17.1396],[102.24932,17.13555],[102.24223,17.13732],[102.24513,17.14612],[102.24034,17.15144],[102.24289,17.16314],[102.27581,17.20689],[102.32626,17.17166],[102.32172,17.16228],[102.31923,17.1178]]]]}},{"type":"Feature","properties":{"tam":"ลำภู","amp":"เมืองหนองบัวลำภู","code":"390110","km2":31.56},"geometry":{"type":"MultiPolygon","coordinates":[[[[102.47206,17.20217],[102.43772,17.21122],[102.42371,17.19066],[102.42304,17.19731],[102.40724,17.2071],[102.40577,17.21504],[102.41124,17.22929],[102.42157,17.23306],[102.43867,17.28267],[102.43946,17.28046],[102.45915,17.24103],[102.47206,17.20217]]]]}},{"type":"Feature","properties":{"tam":"กุดจิก","amp":"เมืองหนองบัวลำภู","code":"390111","km2":112.16},"geometry":{"type":"MultiPolygon","coordinates":[[[[102.42166,17.37506],[102.43782,17.33937],[102.4414,17.3223],[102.43883,17.284],[102.34452,17.28864],[102.33363,17.32425],[102.30664,17.34918],[102.30821,17.35949],[102.3028,17.37723],[102.31479,17.36702],[102.34244,17.35987],[102.38055,17.38228],[102.42166,17.37506]]]]}},{"type":"Feature","properties":{"tam":"โนนทัน","amp":"เมืองหนองบัวลำภู","code":"390112","km2":78.71},"geometry":{"type":"MultiPolygon","coordinates":[[[[102.52176,17.27472],[102.53665,17.25832],[102.57097,17.25512],[102.59293,17.2655],[102.57322,17.23617],[102.55182,17.23594],[102.54193,17.2171],[102.53547,17.22883],[102.52176,17.22526],[102.50364,17.19507],[102.47206,17.20217],[102.45915,17.24103],[102.43946,17.28046],[102.45836,17.28171],[102.4626,17.27538],[102.47827,17.27509],[102.48991,17.28427],[102.50333,17.28604],[102.52176,17.27472]]]]}},{"type":"Feature","properties":{"tam":"นาคำไฮ","amp":"เมืองหนองบัวลำภู","code":"390113","km2":102.37},"geometry":{"type":"MultiPolygon","coordinates":[[[[102.34452,17.28864],[102.36112,17.25771],[102.35707,17.24858],[102.34285,17.23837],[102.33897,17.22335],[102.32577,17.21792],[102.31608,17.2261],[102.30293,17.22673],[102.27894,17.23917],[102.2769,17.24945],[102.24944,17.27738],[102.26138,17.28808],[102.23584,17.32494],[102.24049,17.33943],[102.24515,17.34166],[102.26553,17.31077],[102.27413,17.31403],[102.28971,17.30808],[102.29454,17.33138],[102.30421,17.33935],[102.30664,17.34918],[102.33363,17.32425],[102.34452,17.28864]]]]}},{"type":"Feature","properties":{"tam":"ป่าไม้งาม","amp":"เมืองหนองบัวลำภู","code":"390114","km2":63.02},"geometry":{"type":"MultiPolygon","coordinates":[[[[102.41823,16.96314],[102.40996,16.92755],[102.38694,16.92714],[102.37343,16.93016],[102.37488,16.9523],[102.35719,16.94842],[102.34408,16.96342],[102.32981,16.95528],[102.32957,16.95551],[102.32148,16.96365],[102.32048,16.97637],[102.32894,17.02988],[102.3454,17.02269],[102.36443,17.00185],[102.39385,16.98772],[102.41823,16.96314]]]]}},{"type":"Feature","properties":{"tam":"หนองหว้า","amp":"เมืองหนองบัวลำภู","code":"390115","km2":51.28},"geometry":{"type":"MultiPolygon","coordinates":[[[[102.38371,17.18214],[102.3876,17.1623],[102.36488,17.12573],[102.3503,17.1157],[102.34732,17.1007],[102.33133,17.08461],[102.31923,17.1178],[102.32172,17.16228],[102.32626,17.17166],[102.36107,17.19455],[102.38371,17.18214]]]]}},{"type":"Feature","properties":{"tam":"นากลาง","amp":"นากลาง","code":"390201","km2":50.3},"geometry":{"type":"MultiPolygon","coordinates":[[[[102.23164,17.34101],[102.2406,17.34509],[102.24515,17.34166],[102.24049,17.33943],[102.23584,17.32494],[102.26138,17.28808],[102.24944,17.27738],[102.2321,17.27253],[102.22898,17.27937],[102.21386,17.27772],[102.1975,17.29649],[102.18781,17.2926],[102.18144,17.29628],[102.18429,17.30759],[102.1741,17.31127],[102.17313,17.32039],[102.158,17.33257],[102.15769,17.34335],[102.19303,17.33086],[102.19404,17.33591],[102.20009,17.33702],[102.20246,17.34987],[102.20965,17.3511],[102.23164,17.34101]]]]}},{"type":"Feature","properties":{"tam":"ด่านช้าง","amp":"นากลาง","code":"390202","km2":62.91},"geometry":{"type":"MultiPolygon","coordinates":[[[[102.1272,17.37689],[102.13282,17.36832],[102.14968,17.35965],[102.1463,17.35542],[102.14248,17.35688],[102.14196,17.34829],[102.15559,17.34929],[102.15769,17.34335],[102.158,17.33257],[102.17313,17.32039],[102.1741,17.31127],[102.18429,17.30759],[102.18144,17.29628],[102.18781,17.2926],[102.18816,17.27966],[102.1791,17.28232],[102.17488,17.27754],[102.1399,17.27532],[102.11675,17.26363],[102.10522,17.2631],[102.10588,17.28623],[102.12596,17.30367],[102.12071,17.30507],[102.11998,17.32234],[102.10657,17.33183],[102.11644,17.33785],[102.11523,17.34819],[102.10735,17.38463],[102.10987,17.39028],[102.11351,17.37854],[102.1272,17.37689]]]]}},{"type":"Feature","properties":{"tam":"กุดดินจี่","amp":"นากลาง","code":"390205","km2":85.51},"geometry":{"type":"MultiPolygon","coordinates":[[[[102.23652,17.38312],[102.267,17.38438],[102.28776,17.38503],[102.29317,17.38941],[102.3028,17.37723],[102.30821,17.35949],[102.30664,17.34918],[102.30421,17.33935],[102.29454,17.33138],[102.28971,17.30808],[102.27413,17.31403],[102.26553,17.31077],[102.24515,17.34166],[102.2406,17.34509],[102.23164,17.34101],[102.20965,17.3511],[102.18983,17.36911],[102.18425,17.39217],[102.16726,17.40989],[102.18808,17.41555],[102.19596,17.42515],[102.22499,17.40457],[102.23652,17.38312]]]]}},{"type":"Feature","properties":{"tam":"ฝั่งแดง","amp":"นากลาง","code":"390206","km2":109.96},"geometry":{"type":"MultiPolygon","coordinates":[[[[102.1975,17.29649],[102.21386,17.27772],[102.22898,17.27937],[102.2321,17.27253],[102.24944,17.27738],[102.2769,17.24945],[102.27894,17.23917],[102.26987,17.22241],[102.27581,17.20689],[102.24289,17.16314],[102.24034,17.15144],[102.23298,17.16151],[102.21693,17.16655],[102.21121,17.17894],[102.17212,17.2098],[102.17856,17.22133],[102.16891,17.2242],[102.16734,17.2312],[102.18216,17.25456],[102.18873,17.25567],[102.18459,17.26091],[102.19297,17.27518],[102.18816,17.27966],[102.18781,17.2926],[102.1975,17.29649]]]]}},{"type":"Feature","properties":{"tam":"เก่ากลอย","amp":"นากลาง","code":"390207","km2":77.83},"geometry":{"type":"MultiPolygon","coordinates":[[[[102.33686,17.42876],[102.34648,17.43208],[102.35304,17.42597],[102.36684,17.4242],[102.37602,17.41553],[102.39929,17.41461],[102.40592,17.40132],[102.42166,17.37506],[102.38055,17.38228],[102.34244,17.35987],[102.31479,17.36702],[102.3028,17.37723],[102.29317,17.38941],[102.28776,17.38503],[102.267,17.38438],[102.26628,17.42199],[102.27615,17.41763],[102.28395,17.42715],[102.29488,17.41336],[102.30971,17.40961],[102.31633,17.41982],[102.31643,17.43145],[102.32924,17.43396],[102.33686,17.42876]]]]}},{"type":"Feature","properties":{"tam":"โนนเมือง","amp":"นากลาง","code":"390209","km2":36.59},"geometry":{"type":"MultiPolygon","coordinates":[[[[102.21121,17.17894],[102.21693,17.16655],[102.23298,17.16151],[102.24034,17.15144],[102.24513,17.14612],[102.24223,17.13732],[102.22996,17.12835],[102.22812,17.14325],[102.21936,17.15071],[102.19202,17.15468],[102.18083,17.16778],[102.16777,17.16442],[102.1417,17.1766],[102.13071,17.17256],[102.12396,17.18242],[102.14319,17.19438],[102.16169,17.19339],[102.17212,17.2098],[102.21121,17.17894]]]]}},{"type":"Feature","properties":{"tam":"อุทัยสวรรค์","amp":"นากลาง","code":"390210","km2":77.8},"geometry":{"type":"MultiPolygon","coordinates":[[[[102.18816,17.27966],[102.19297,17.27518],[102.18459,17.26091],[102.18873,17.25567],[102.18216,17.25456],[102.16734,17.2312],[102.16891,17.2242],[102.17856,17.22133],[102.17212,17.2098],[102.16169,17.19339],[102.14319,17.19438],[102.12396,17.18242],[102.10959,17.17769],[102.09991,17.18053],[102.09488,17.19446],[102.10081,17.21323],[102.09391,17.25078],[102.10522,17.2631],[102.11675,17.26363],[102.1399,17.27532],[102.17488,17.27754],[102.1791,17.28232],[102.18816,17.27966]]]]}},{"type":"Feature","properties":{"tam":"ดงสวรรค์","amp":"นากลาง","code":"390211","km2":106.91},"geometry":{"type":"MultiPolygon","coordinates":[[[[102.13332,17.49782],[102.15011,17.48676],[102.15828,17.48582],[102.16119,17.49281],[102.178,17.49202],[102.19866,17.47408],[102.20703,17.47158],[102.20903,17.46275],[102.22039,17.46539],[102.23929,17.45861],[102.25567,17.44058],[102.25631,17.42648],[102.26628,17.42199],[102.267,17.38438],[102.23652,17.38312],[102.22499,17.40457],[102.19596,17.42515],[102.18808,17.41555],[102.16726,17.40989],[102.15092,17.41777],[102.13103,17.44273],[102.12026,17.46726],[102.1118,17.48183],[102.12856,17.49221],[102.12729,17.49831],[102.13332,17.49782]]]]}},{"type":"Feature","properties":{"tam":"กุดแห่","amp":"นากลาง","code":"390213","km2":72.46},"geometry":{"type":"MultiPolygon","coordinates":[[[[102.18425,17.39217],[102.18983,17.36911],[102.20965,17.3511],[102.20246,17.34987],[102.20009,17.33702],[102.19404,17.33591],[102.19303,17.33086],[102.15769,17.34335],[102.15559,17.34929],[102.14196,17.34829],[102.14248,17.35688],[102.1463,17.35542],[102.14968,17.35965],[102.13282,17.36832],[102.1272,17.37689],[102.11351,17.37854],[102.10987,17.39028],[102.10725,17.39327],[102.1112,17.39342],[102.11586,17.40396],[102.10323,17.41781],[102.09674,17.43591],[102.10077,17.44444],[102.11052,17.44892],[102.12026,17.46726],[102.13103,17.44273],[102.15092,17.41777],[102.16726,17.40989],[102.18425,17.39217]]]]}},{"type":"Feature","properties":{"tam":"โนนสัง","amp":"โนนสัง","code":"390301","km2":35.9},"geometry":{"type":"MultiPolygon","coordinates":[[[[102.5826,16.90536],[102.58386,16.8998],[102.58833,16.90262],[102.59987,16.89997],[102.57813,16.86708],[102.58533,16.8388],[102.56249,16.83866],[102.55538,16.84126],[102.55227,16.85182],[102.52238,16.86205],[102.51816,16.87163],[102.52177,16.88386],[102.52382,16.88652],[102.52671,16.88189],[102.53188,16.8829],[102.57414,16.90663],[102.5826,16.90536]]]]}},{"type":"Feature","properties":{"tam":"บ้านถิ่น","amp":"โนนสัง","code":"390302","km2":47.64},"geometry":{"type":"MultiPolygon","coordinates":[[[[102.50368,17.00201],[102.52298,17.01194],[102.54496,17.01392],[102.54782,17.0046],[102.55606,17.0026],[102.57052,16.98427],[102.58571,16.97343],[102.59239,16.95852],[102.57165,16.97074],[102.55615,16.97193],[102.55639,16.94662],[102.53888,16.95562],[102.53496,16.9628],[102.51399,16.959],[102.49917,16.98077],[102.4838,16.98413],[102.47905,16.99196],[102.47118,17.02814],[102.48522,17.02235],[102.49545,17.00394],[102.50368,17.00201]]]]}},{"type":"Feature","properties":{"tam":"หนองเรือ","amp":"โนนสัง","code":"390303","km2":77.69},"geometry":{"type":"MultiPolygon","coordinates":[[[[102.52238,16.86205],[102.55227,16.85182],[102.55538,16.84126],[102.56249,16.83866],[102.54241,16.83276],[102.53584,16.82559],[102.53783,16.78463],[102.51967,16.7933],[102.49653,16.8036],[102.47897,16.80733],[102.47121,16.8025],[102.46337,16.80705],[102.46652,16.8486],[102.47554,16.8617],[102.46896,16.86472],[102.47259,16.86858],[102.46375,16.86797],[102.48027,16.89826],[102.49791,16.90802],[102.52177,16.88386],[102.51816,16.87163],[102.52238,16.86205]]]]}},{"type":"Feature","properties":{"tam":"กุดดู่","amp":"โนนสัง","code":"390304","km2":73.88},"geometry":{"type":"MultiPolygon","coordinates":[[[[102.66942,16.99367],[102.67624,16.98183],[102.67953,16.96801],[102.67104,16.94135],[102.66268,16.9471],[102.62874,16.93575],[102.6189,16.92738],[102.6098,16.92914],[102.60213,16.92552],[102.5987,16.92055],[102.59987,16.89997],[102.58833,16.90262],[102.58386,16.8998],[102.5826,16.90536],[102.57414,16.90663],[102.57376,16.92712],[102.56098,16.9342],[102.55639,16.94662],[102.55615,16.97193],[102.57165,16.97074],[102.59239,16.95852],[102.61885,16.97866],[102.63827,17.00662],[102.66942,16.99367]]]]}},{"type":"Feature","properties":{"tam":"บ้านค้อ","amp":"โนนสัง","code":"390305","km2":80.34},"geometry":{"type":"MultiPolygon","coordinates":[[[[102.67104,16.94135],[102.65296,16.90493],[102.62439,16.84358],[102.61304,16.79892],[102.61499,16.77707],[102.61084,16.77128],[102.60231,16.77228],[102.58533,16.8388],[102.57813,16.86708],[102.59987,16.89997],[102.5987,16.92055],[102.60213,16.92552],[102.6098,16.92914],[102.6189,16.92738],[102.62874,16.93575],[102.66268,16.9471],[102.67104,16.94135]]]]}},{"type":"Feature","properties":{"tam":"โนนเมือง","amp":"โนนสัง","code":"390306","km2":57.2},"geometry":{"type":"MultiPolygon","coordinates":[[[[102.47259,16.86858],[102.46896,16.86472],[102.47554,16.8617],[102.46652,16.8486],[102.46337,16.80705],[102.45361,16.8109],[102.45358,16.8058],[102.44774,16.80285],[102.45002,16.79484],[102.44544,16.79188],[102.433,16.79473],[102.42054,16.79515],[102.40569,16.81375],[102.40534,16.82685],[102.39062,16.84722],[102.41473,16.87645],[102.42175,16.86527],[102.43224,16.86484],[102.48027,16.89826],[102.46375,16.86797],[102.47259,16.86858]]]]}},{"type":"Feature","properties":{"tam":"โคกใหญ่","amp":"โนนสัง","code":"390307","km2":38.76},"geometry":{"type":"MultiPolygon","coordinates":[[[[102.58533,16.8388],[102.60231,16.77228],[102.55051,16.78159],[102.53783,16.78463],[102.53584,16.82559],[102.54241,16.83276],[102.56249,16.83866],[102.58533,16.8388]]]]}},{"type":"Feature","properties":{"tam":"โคกม่วง","amp":"โนนสัง","code":"390308","km2":129.08},"geometry":{"type":"MultiPolygon","coordinates":[[[[102.49791,16.90802],[102.48027,16.89826],[102.43224,16.86484],[102.42175,16.86527],[102.41473,16.87645],[102.39062,16.84722],[102.38628,16.86256],[102.39089,16.86801],[102.37717,16.87083],[102.3776,16.87543],[102.36777,16.87798],[102.37884,16.9011],[102.37456,16.90845],[102.38159,16.91146],[102.38694,16.92714],[102.40996,16.92755],[102.41823,16.96314],[102.44873,17.01506],[102.45936,17.0245],[102.47118,17.02814],[102.47905,16.99196],[102.48409,16.92923],[102.49791,16.90802]]]]}},{"type":"Feature","properties":{"tam":"นิคมพัฒนา","amp":"โนนสัง","code":"390309","km2":66.39},"geometry":{"type":"MultiPolygon","coordinates":[[[[102.49917,16.98077],[102.51399,16.959],[102.53496,16.9628],[102.53888,16.95562],[102.55639,16.94662],[102.56098,16.9342],[102.57376,16.92712],[102.57414,16.90663],[102.53188,16.8829],[102.52671,16.88189],[102.52382,16.88652],[102.52177,16.88386],[102.49791,16.90802],[102.48409,16.92923],[102.47905,16.99196],[102.4838,16.98413],[102.49917,16.98077]]]]}},{"type":"Feature","properties":{"tam":"ปางกู่","amp":"โนนสัง","code":"390310","km2":46.29},"geometry":{"type":"MultiPolygon","coordinates":[[[[102.61885,16.97866],[102.59239,16.95852],[102.58571,16.97343],[102.57052,16.98427],[102.55606,17.0026],[102.54782,17.0046],[102.54496,17.01392],[102.57474,17.03269],[102.58051,17.04052],[102.60855,17.02751],[102.63827,17.00662],[102.61885,16.97866]]]]}},{"type":"Feature","properties":{"tam":"เมืองใหม่","amp":"ศรีบุญเรือง","code":"390401","km2":60.74},"geometry":{"type":"MultiPolygon","coordinates":[[[[102.32894,17.02988],[102.32048,16.97637],[102.32148,16.96365],[102.32957,16.95551],[102.29813,16.95181],[102.27211,16.93866],[102.26394,17.00401],[102.2527,17.02039],[102.26706,17.02131],[102.27719,17.02794],[102.30023,17.04142],[102.32733,17.04357],[102.32894,17.02988]]]]}},{"type":"Feature","properties":{"tam":"ศรีบุญเรือง","amp":"ศรีบุญเรือง","code":"390402","km2":59.59},"geometry":{"type":"MultiPolygon","coordinates":[[[[102.24881,16.94949],[102.27211,16.93866],[102.29813,16.95181],[102.32957,16.95551],[102.32981,16.95528],[102.31745,16.90762],[102.30969,16.89687],[102.29613,16.89087],[102.25465,16.89476],[102.25012,16.89148],[102.23617,16.90259],[102.24311,16.90391],[102.2391,16.91181],[102.22854,16.91615],[102.23046,16.93723],[102.22221,16.96493],[102.22376,16.9677],[102.23451,16.9646],[102.24881,16.94949]]]]}},{"type":"Feature","properties":{"tam":"หนองบัวใต้","amp":"ศรีบุญเรือง","code":"390403","km2":41.73},"geometry":{"type":"MultiPolygon","coordinates":[[[[102.35719,16.94842],[102.37488,16.9523],[102.37343,16.93016],[102.38694,16.92714],[102.38159,16.91146],[102.37456,16.90845],[102.37884,16.9011],[102.36777,16.87798],[102.3776,16.87543],[102.37717,16.87083],[102.36076,16.87303],[102.33921,16.90283],[102.31745,16.90762],[102.32981,16.95528],[102.34408,16.96342],[102.35719,16.94842]]]]}},{"type":"Feature","properties":{"tam":"กุดสะเทียน","amp":"ศรีบุญเรือง","code":"390404","km2":60.24},"geometry":{"type":"MultiPolygon","coordinates":[[[[102.24638,17.11701],[102.25523,17.11286],[102.25601,17.09923],[102.26599,17.08264],[102.26685,17.06416],[102.27719,17.02794],[102.26706,17.02131],[102.2527,17.02039],[102.2261,17.00592],[102.21332,17.02733],[102.20441,17.02548],[102.19844,17.0325],[102.199,17.0615],[102.23161,17.08802],[102.23247,17.09959],[102.24045,17.11454],[102.24638,17.11701]]]]}},{"type":"Feature","properties":{"tam":"นากอก","amp":"ศรีบุญเรือง","code":"390405","km2":98.48},"geometry":{"type":"MultiPolygon","coordinates":[[[[102.23046,16.93723],[102.22854,16.91615],[102.2391,16.91181],[102.24311,16.90391],[102.23617,16.90259],[102.25012,16.89148],[102.24935,16.87875],[102.24478,16.88143],[102.2421,16.87572],[102.23419,16.88017],[102.23325,16.87508],[102.22763,16.87515],[102.2257,16.86877],[102.21331,16.86138],[102.21562,16.85878],[102.21532,16.85826],[102.20362,16.86245],[102.18773,16.85803],[102.18032,16.87179],[102.17134,16.8652],[102.16755,16.87042],[102.15838,16.87172],[102.15576,16.88125],[102.14416,16.88072],[102.14417,16.87654],[102.13777,16.87906],[102.12391,16.88105],[102.10474,16.89732],[102.09677,16.89077],[102.09935,16.88202],[102.08124,16.88939],[102.07025,16.88502],[102.06942,16.88909],[102.066,16.89569],[102.0539,16.90171],[102.08231,16.90757],[102.1098,16.91922],[102.14398,16.91248],[102.15907,16.91586],[102.18569,16.92895],[102.22221,16.96493],[102.23046,16.93723]]]]}},{"type":"Feature","properties":{"tam":"โนนสะอาด","amp":"ศรีบุญเรือง","code":"390406","km2":164.17},"geometry":{"type":"MultiPolygon","coordinates":[[[[102.18846,17.02945],[102.19471,17.00636],[102.20894,17.00531],[102.21588,16.99752],[102.21371,16.99538],[102.22167,16.9916],[102.22376,16.9677],[102.22221,16.96493],[102.18569,16.92895],[102.15907,16.91586],[102.14398,16.91248],[102.1098,16.91922],[102.08231,16.90757],[102.0539,16.90171],[102.04567,16.90724],[102.02986,16.95048],[102.05851,16.9652],[102.06523,16.96095],[102.07175,16.96246],[102.08927,16.97883],[102.12544,16.99132],[102.13584,17.01127],[102.14085,17.01169],[102.15346,17.02741],[102.15619,17.0248],[102.17529,17.03239],[102.18846,17.02945]]]]}},{"type":"Feature","properties":{"tam":"ยางหล่อ","amp":"ศรีบุญเรือง","code":"390407","km2":76.32},"geometry":{"type":"MultiPolygon","coordinates":[[[[102.14354,17.10105],[102.15352,17.10767],[102.16823,17.10243],[102.199,17.0615],[102.19844,17.0325],[102.20441,17.02548],[102.21332,17.02733],[102.2261,17.00592],[102.22911,17.00138],[102.22167,16.9916],[102.21371,16.99538],[102.21588,16.99752],[102.20894,17.00531],[102.19471,17.00636],[102.18846,17.02945],[102.17529,17.03239],[102.15619,17.0248],[102.15346,17.02741],[102.12526,17.04096],[102.11716,17.05792],[102.10584,17.10244],[102.11068,17.11361],[102.12047,17.11869],[102.14354,17.10105]]]]}},{"type":"Feature","properties":{"tam":"โนนม่วง","amp":"ศรีบุญเรือง","code":"390408","km2":108.08},"geometry":{"type":"MultiPolygon","coordinates":[[[[102.13071,17.17256],[102.1417,17.1766],[102.16777,17.16442],[102.18083,17.16778],[102.19202,17.15468],[102.21936,17.15071],[102.22812,17.14325],[102.22996,17.12835],[102.24223,17.13732],[102.24932,17.13555],[102.25568,17.1396],[102.27458,17.13476],[102.25523,17.11286],[102.24638,17.11701],[102.24045,17.11454],[102.23247,17.09959],[102.23161,17.08802],[102.199,17.0615],[102.16823,17.10243],[102.15352,17.10767],[102.14354,17.10105],[102.12047,17.11869],[102.12897,17.14923],[102.10614,17.15877],[102.09293,17.17476],[102.09991,17.18053],[102.10959,17.17769],[102.12396,17.18242],[102.13071,17.17256]]]]}},{"type":"Feature","properties":{"tam":"หนองกุงแก้ว","amp":"ศรีบุญเรือง","code":"390409","km2":81.62},"geometry":{"type":"MultiPolygon","coordinates":[[[[102.06352,17.20229],[102.08189,17.17025],[102.09293,17.17476],[102.10614,17.15877],[102.12897,17.14923],[102.12047,17.11869],[102.11068,17.11361],[102.10584,17.10244],[102.11716,17.05792],[102.10797,17.06142],[102.10185,17.06972],[102.10562,17.08267],[102.09996,17.08699],[102.09913,17.10184],[102.09203,17.10318],[102.09145,17.1108],[102.07253,17.11236],[102.06539,17.12065],[102.04818,17.1238],[102.03787,17.13096],[102.02302,17.13125],[102.01639,17.13985],[102.02057,17.15405],[102.03834,17.1579],[102.04491,17.16502],[102.03231,17.17347],[102.03001,17.1921],[102.01741,17.20205],[102.02779,17.20465],[102.03766,17.22082],[102.04075,17.21102],[102.06352,17.20229]]]]}},{"type":"Feature","properties":{"tam":"หนองแก","amp":"ศรีบุญเรือง","code":"390410","km2":62.98},"geometry":{"type":"MultiPolygon","coordinates":[[[[102.31923,17.1178],[102.33133,17.08461],[102.33025,17.07034],[102.32263,17.05393],[102.32733,17.04357],[102.30023,17.04142],[102.27719,17.02794],[102.26685,17.06416],[102.26599,17.08264],[102.25601,17.09923],[102.25523,17.11286],[102.27458,17.13476],[102.28214,17.12724],[102.31923,17.1178]]]]}},{"type":"Feature","properties":{"tam":"ทรายทอง","amp":"ศรีบุญเรือง","code":"390411","km2":60.63},"geometry":{"type":"MultiPolygon","coordinates":[[[[102.36076,16.87303],[102.37717,16.87083],[102.39089,16.86801],[102.38628,16.86256],[102.39062,16.84722],[102.40534,16.82685],[102.40569,16.81375],[102.39161,16.81044],[102.37809,16.81735],[102.3776,16.81055],[102.36127,16.81646],[102.35063,16.83032],[102.34654,16.81719],[102.33833,16.82389],[102.33596,16.83122],[102.33967,16.83711],[102.3233,16.84651],[102.3317,16.84857],[102.33029,16.85521],[102.31605,16.85503],[102.3246,16.86743],[102.3111,16.868],[102.30193,16.8775],[102.30718,16.88417],[102.29065,16.88505],[102.29613,16.89087],[102.30969,16.89687],[102.31745,16.90762],[102.33921,16.90283],[102.36076,16.87303]]]]}},{"type":"Feature","properties":{"tam":"หันนางาม","amp":"ศรีบุญเรือง","code":"390412","km2":29.93},"geometry":{"type":"MultiPolygon","coordinates":[[[[102.26394,17.00401],[102.27211,16.93866],[102.24881,16.94949],[102.23451,16.9646],[102.22376,16.9677],[102.22167,16.9916],[102.22911,17.00138],[102.2261,17.00592],[102.2527,17.02039],[102.26394,17.00401]]]]}},{"type":"Feature","properties":{"tam":"นาสี","amp":"สุวรรณคูหา","code":"390501","km2":59.82},"geometry":{"type":"MultiPolygon","coordinates":[[[[102.32409,17.62131],[102.32673,17.59221],[102.33365,17.5787],[102.32545,17.5807],[102.31902,17.58894],[102.31128,17.58336],[102.30739,17.58791],[102.29861,17.58458],[102.28683,17.59067],[102.26477,17.56464],[102.25836,17.5638],[102.25665,17.56743],[102.24636,17.5613],[102.24992,17.58567],[102.26357,17.59937],[102.2687,17.61068],[102.28095,17.61843],[102.26894,17.66485],[102.27537,17.6676],[102.29658,17.66221],[102.2868,17.67372],[102.31819,17.67879],[102.32409,17.62131]]]]}},{"type":"Feature","properties":{"tam":"บ้านโคก","amp":"สุวรรณคูหา","code":"390502","km2":97.6},"geometry":{"type":"MultiPolygon","coordinates":[[[[102.26357,17.59937],[102.24992,17.58567],[102.24636,17.5613],[102.25665,17.56743],[102.25836,17.5638],[102.26477,17.56464],[102.25752,17.53893],[102.25028,17.53499],[102.24324,17.52291],[102.23774,17.50428],[102.22638,17.50469],[102.22108,17.49701],[102.2055,17.4947],[102.20703,17.47158],[102.19866,17.47408],[102.178,17.49202],[102.16119,17.49281],[102.15828,17.48582],[102.15011,17.48676],[102.13332,17.49782],[102.15256,17.50819],[102.1473,17.51659],[102.15356,17.51669],[102.1548,17.52422],[102.16333,17.52925],[102.16717,17.5264],[102.16796,17.53679],[102.18097,17.55772],[102.18363,17.57637],[102.21052,17.58391],[102.24068,17.60448],[102.26357,17.59937]]]]}},{"type":"Feature","properties":{"tam":"นาดี","amp":"สุวรรณคูหา","code":"390503","km2":95.41},"geometry":{"type":"MultiPolygon","coordinates":[[[[102.29458,17.51338],[102.30686,17.51276],[102.30681,17.48709],[102.31532,17.46175],[102.31127,17.44663],[102.31643,17.43145],[102.31633,17.41982],[102.30971,17.40961],[102.29488,17.41336],[102.28395,17.42715],[102.27615,17.41763],[102.26628,17.42199],[102.25631,17.42648],[102.25567,17.44058],[102.23929,17.45861],[102.22039,17.46539],[102.20903,17.46275],[102.20703,17.47158],[102.2055,17.4947],[102.22108,17.49701],[102.22638,17.50469],[102.23774,17.50428],[102.24324,17.52291],[102.28649,17.527],[102.29458,17.51338]]]]}},{"type":"Feature","properties":{"tam":"นาด่าน","amp":"สุวรรณคูหา","code":"390504","km2":75.86},"geometry":{"type":"MultiPolygon","coordinates":[[[[102.36874,17.49973],[102.38511,17.45151],[102.39929,17.41461],[102.37602,17.41553],[102.36684,17.4242],[102.35304,17.42597],[102.34648,17.43208],[102.33686,17.42876],[102.32924,17.43396],[102.31643,17.43145],[102.31127,17.44663],[102.31532,17.46175],[102.30681,17.48709],[102.30686,17.51276],[102.30901,17.52647],[102.33686,17.51614],[102.34839,17.52905],[102.36874,17.49973]]]]}},{"type":"Feature","properties":{"tam":"ดงมะไฟ","amp":"สุวรรณคูหา","code":"390505","km2":105.28},"geometry":{"type":"MultiPolygon","coordinates":[[[[102.21743,17.66061],[102.24613,17.66589],[102.26277,17.65999],[102.26894,17.66485],[102.28095,17.61843],[102.2687,17.61068],[102.26357,17.59937],[102.24068,17.60448],[102.21052,17.58391],[102.18363,17.57637],[102.1824,17.58326],[102.16068,17.60858],[102.14374,17.62072],[102.13722,17.63587],[102.13788,17.64868],[102.14522,17.66168],[102.16023,17.66624],[102.17227,17.66201],[102.18418,17.66785],[102.21743,17.66061]]]]}},{"type":"Feature","properties":{"tam":"สุวรรณคูหา","amp":"สุวรรณคูหา","code":"390506","km2":22.46},"geometry":{"type":"MultiPolygon","coordinates":[[[[102.28683,17.59067],[102.2972,17.57113],[102.29701,17.5485],[102.28649,17.527],[102.24324,17.52291],[102.25028,17.53499],[102.25752,17.53893],[102.26477,17.56464],[102.28683,17.59067]]]]}},{"type":"Feature","properties":{"tam":"บุญทัน","amp":"สุวรรณคูหา","code":"390507","km2":73.89},"geometry":{"type":"MultiPolygon","coordinates":[[[[102.13788,17.64868],[102.13722,17.63587],[102.14374,17.62072],[102.16068,17.60858],[102.1824,17.58326],[102.18363,17.57637],[102.18097,17.55772],[102.16796,17.53679],[102.16717,17.5264],[102.16333,17.52925],[102.1548,17.52422],[102.15356,17.51669],[102.1473,17.51659],[102.15256,17.50819],[102.13332,17.49782],[102.12729,17.49831],[102.126,17.50934],[102.13478,17.50948],[102.13927,17.52275],[102.14,17.53034],[102.13346,17.5421],[102.13492,17.55234],[102.13437,17.55951],[102.11602,17.57663],[102.11494,17.59],[102.10585,17.60835],[102.09575,17.61567],[102.08282,17.63501],[102.10423,17.64698],[102.10949,17.63887],[102.12104,17.63307],[102.12917,17.63616],[102.13178,17.64731],[102.13788,17.64868]]]]}},{"type":"Feature","properties":{"tam":"กุดผึ้ง","amp":"สุวรรณคูหา","code":"390508","km2":34.32},"geometry":{"type":"MultiPolygon","coordinates":[[[[102.29861,17.58458],[102.30739,17.58791],[102.31128,17.58336],[102.31902,17.58894],[102.32545,17.5807],[102.33365,17.5787],[102.3323,17.55458],[102.34839,17.52905],[102.33686,17.51614],[102.30901,17.52647],[102.30686,17.51276],[102.29458,17.51338],[102.28649,17.527],[102.29701,17.5485],[102.2972,17.57113],[102.28683,17.59067],[102.29861,17.58458]]]]}},{"type":"Feature","properties":{"tam":"นาเหล่า","amp":"นาวัง","code":"390601","km2":46.51},"geometry":{"type":"MultiPolygon","coordinates":[[[[102.08992,17.33114],[102.08843,17.31369],[102.09918,17.30244],[102.08788,17.26258],[102.0889,17.24847],[102.09391,17.25078],[102.10081,17.21323],[102.09488,17.19446],[102.08552,17.2109],[102.08177,17.23129],[102.08444,17.23661],[102.06953,17.25705],[102.05273,17.25158],[102.04282,17.26108],[102.04537,17.27622],[102.05744,17.29755],[102.05506,17.32001],[102.0653,17.3316],[102.06009,17.33964],[102.08992,17.33114]]]]}},{"type":"Feature","properties":{"tam":"นาแก","amp":"นาวัง","code":"390602","km2":88.22},"geometry":{"type":"MultiPolygon","coordinates":[[[[102.1118,17.48183],[102.12026,17.46726],[102.11052,17.44892],[102.10077,17.44444],[102.09674,17.43591],[102.10323,17.41781],[102.11586,17.40396],[102.1112,17.39342],[102.10725,17.39327],[102.10987,17.39028],[102.10735,17.38463],[102.11523,17.34819],[102.10215,17.34719],[102.08992,17.33114],[102.06009,17.33964],[102.0488,17.34692],[102.05008,17.36824],[102.01793,17.37396],[102.00724,17.38545],[102.03769,17.39001],[102.04712,17.39651],[102.06295,17.42746],[102.06246,17.44368],[102.08278,17.46167],[102.09169,17.46427],[102.09622,17.47223],[102.1118,17.48183]]]]}},{"type":"Feature","properties":{"tam":"วังทอง","amp":"นาวัง","code":"390603","km2":54.91},"geometry":{"type":"MultiPolygon","coordinates":[[[[102.05008,17.36824],[102.0488,17.34692],[102.06009,17.33964],[102.0653,17.3316],[102.05506,17.32001],[102.05744,17.29755],[102.04537,17.27622],[102.04282,17.26108],[102.02989,17.27067],[102.02678,17.28116],[102.01475,17.27953],[102.01673,17.28679],[102.00271,17.29576],[101.98607,17.32334],[101.99226,17.33499],[102.00971,17.33359],[102.02062,17.34125],[102.01337,17.3622],[102.01841,17.36683],[102.01793,17.37396],[102.05008,17.36824]]]]}},{"type":"Feature","properties":{"tam":"วังปลาป้อม","amp":"นาวัง","code":"390604","km2":54.21},"geometry":{"type":"MultiPolygon","coordinates":[[[[102.08278,17.46167],[102.06246,17.44368],[102.06295,17.42746],[102.04712,17.39651],[102.03769,17.39001],[102.00724,17.38545],[101.99583,17.39724],[101.98922,17.40364],[101.98703,17.4094],[101.98487,17.41486],[101.9931,17.41951],[101.98457,17.44266],[101.99193,17.45955],[101.99889,17.4564],[102.03244,17.45888],[102.05213,17.44952],[102.08278,17.46167]]]]}},{"type":"Feature","properties":{"tam":"เทพคีรี","amp":"นาวัง","code":"390605","km2":21.87},"geometry":{"type":"MultiPolygon","coordinates":[[[[102.11523,17.34819],[102.11644,17.33785],[102.10657,17.33183],[102.11998,17.32234],[102.12071,17.30507],[102.12596,17.30367],[102.10588,17.28623],[102.10522,17.2631],[102.09391,17.25078],[102.0889,17.24847],[102.08788,17.26258],[102.09918,17.30244],[102.08843,17.31369],[102.08992,17.33114],[102.10215,17.34719],[102.11523,17.34819]]]]}}]}